0 COSMOS 2251 DEB
1 35467U 93036ALM 13282.35187915  .00004982  00000-0  51383-3 0  4936
2 35467 074.0399 292.1051 0132421 098.5789 263.0204 14.84129100239346
0 COSMOS 2251 DEB
1 35467U 93036ALM 13283.36299996  .00005014  00000-0  51712-3 0  4945
2 35467 074.0402 290.1014 0132279 096.1980 265.4389 14.84140158239498
0 COSMOS 2251 DEB
1 35467U 93036ALM 13283.70003838  .00012871  00000-0  13163-2 0  4958
2 35467 074.0431 289.4261 0132019 095.0938 266.5830 14.84157629239548
0 COSMOS 2251 DEB
1 35467U 93036ALM 13284.37410841  .00005188  00000-0  53456-3 0  4951
2 35467 074.0398 288.0966 0132376 093.7077 267.9549 14.84152885239644
0 COSMOS 2251 DEB
1 35467U 93036ALM 13285.31779588  .00006018  00000-0  61819-3 0  4968
2 35467 074.0478 286.2262 0132966 092.4024 269.3610 14.84173904239780
0 COSMOS 2251 DEB
1 35467U 93036ALM 13286.32885752  .00006826  00000-0  70087-3 0  4976
2 35467 074.0457 284.2248 0132581 090.0690 271.6073 14.84193025239937
0 COSMOS 2251 DEB
1 35467U 93036ALM 13287.33992065  .00007997  00000-0  81988-3 0  4987
2 35467 074.0420 282.2183 0132508 087.6646 274.0213 14.84216758240085
0 COSMOS 2251 DEB
1 35467U 93036ALM 13289.29460334  .00008226  00000-0  84258-3 0  4993
2 35467 074.0440 278.3457 0132452 083.3943 278.2652 14.84251288240370
0 COSMOS 2251 DEB
1 35467U 93036ALM 13290.30562508  .00008517  00000-0  87361-3 0  5007
2 35467 074.0477 276.3415 0131534 081.0917 280.5445 14.84271349240521
0 COSMOS 2251 DEB
1 35467U 93036ALM 13291.31663341  .00008701  00000-0  89252-3 0  5013
2 35467 074.0477 274.3371 0131245 078.7138 282.8939 14.84290758240671
0 COSMOS 2251 DEB
1 35467U 93036ALM 13292.32763050  .00008989  00000-0  91821-3 0  5027
2 35467 074.0501 272.3452 0132695 077.1255 284.5077 14.84312209240825
0 COSMOS 2251 DEB
1 35467U 93036ALM 13293.27121043  .00010152  00000-0  10359-2 0  5034
2 35467 074.0534 270.4724 0132560 076.1489 285.5832 14.84342960240963
0 COSMOS 2251 DEB
1 35467U 93036ALM 13295.29309083  .00010924  00000-0  11157-2 0  5045
2 35467 074.0349 266.4431 0131437 067.9447 293.5639 14.84392372241261
